     2.11           N: GPS NAV DATA                         RINEX VERSION / TYPE
teqc  2016Apr1      IGN                 20210717 00:52:02UTCPGM / RUN BY / DATE
    18                                                      LEAP SECONDS
    4.6566D-09  1.4901D-08 -5.9605D-08 -1.1921D-07          ION ALPHA
    7.9872D+04  8.1920D+04 -6.5536D+04 -4.5875D+05          ION BETA
   -9.313225746155D-10 1.776356839400D-15    61440     2167 DELTA-UTC: A0,A1,T,W
                                                            END OF HEADER
29 21  7 16 14  0  0.0-3.810916095972D-04-6.139089236967D-12 0.000000000000D+00
    2.700000000000D+01-5.937500000000D+00 4.129814880509D-09 3.015624249289D+00
   -2.700835466385D-07 1.983395544812D-03 9.212642908096D-06 5.153610481262D+03
    4.824000000000D+05 4.470348358154D-08 9.834054098683D-01 1.341104507446D-07
    9.836711152903D-01 2.150625000000D+02 2.230110440754D+00-7.866041937935D-09
   -1.457203555520D-10 1.000000000000D+00 2.166000000000D+03 0.000000000000D+00
    2.000000000000D+00 0.000000000000D+00-9.778887033463D-09 2.700000000000D+01
    4.782480000000D+05 4.000000000000D+00
 8 21  7 16 14  0  0.0-2.901069819927D-05-1.364242052659D-12 0.000000000000D+00
    6.000000000000D+01-2.965625000000D+01 4.448399579412D-09 2.989000611942D+00
   -1.439824700356D-06 6.365136709064D-03 9.013339877129D-06 5.153627798080D+03
    4.824000000000D+05-7.450580596924D-08 8.921324704298D-01-2.421438694000D-08
    9.669778404741D-01 2.094687500000D+02 6.245279350096D-02-7.959260106560D-09
   -2.410814705824D-10 1.000000000000D+00 2.166000000000D+03 0.000000000000D+00
    2.000000000000D+00 0.000000000000D+00 5.122274160385D-09 6.000000000000D+01
    4.752180000000D+05 4.000000000000D+00
27 21  7 16 14  0  0.0-1.637623645365D-04-5.911715561524D-12 0.000000000000D+00
    2.500000000000D+01-2.946875000000D+01 4.216247052185D-09 2.882865842385D+00
   -1.551583409309D-06 9.445299394429D-03 9.471550583839D-06 5.153689155579D+03
    4.824000000000D+05-4.656612873077D-08 9.097944296184D-01-1.359730958939D-07
    9.755736910972D-01 2.042500000000D+02 6.374517468468D-01-7.792467444690D-09
   -2.596536727606D-10 1.000000000000D+00 2.166000000000D+03 0.000000000000D+00
    2.000000000000D+00 0.000000000000D+00 1.862645149231D-09 2.500000000000D+01
    4.752180000000D+05 4.000000000000D+00
10 21  7 16 14  0  0.0-1.631868071854D-04-7.617018127348D-12 0.000000000000D+00
    2.000000000000D+01-3.484375000000D+01 4.535546066556D-09-1.286239369398D+00
   -1.870095729828D-06 6.730462308042D-03 5.420297384262D-06 5.153670606613D+03
    4.824000000000D+05 1.583248376846D-07 3.002418742335D+00-1.098960638046D-07
    9.701215695031D-01 2.825937500000D+02-2.573809416396D+00-8.174269062546D-09
   -1.117903708034D-10 1.000000000000D+00 2.166000000000D+03 0.000000000000D+00
    2.000000000000D+00 0.000000000000D+00 2.328306436539D-09 2.000000000000D+01
    4.752180000000D+05 4.000000000000D+00
21 21  7 16 14  0  0.0 1.316042616963D-04 2.273736754432D-12 0.000000000000D+00
    6.900000000000D+01 2.953125000000D+01 4.526617123201D-09 3.069766197867D+00
    1.750886440277D-06 2.403034409508D-02 8.998438715935D-06 5.153672796249D+03
    4.824000000000D+05 3.296881914139D-07 1.883014036830D+00 4.228204488754D-07
    9.574878162851D-01 1.966875000000D+02-1.112375316840D+00-7.847826893491D-09
    2.278666344171D-10 1.000000000000D+00 2.166000000000D+03 0.000000000000D+00
    2.000000000000D+00 0.000000000000D+00-1.024454832077D-08 6.900000000000D+01
    4.752180000000D+05 4.000000000000D+00
32 21  7 16 14  0  0.0 1.375097781420D-05-2.046363078989D-12 0.000000000000D+00
    6.400000000000D+01-4.806250000000D+01 4.314465429089D-09-2.643210890835D+00
   -2.393499016762D-06 5.042091244832D-03 1.055747270584D-05 5.153698432922D+03
    4.824000000000D+05 2.235174179077D-08-2.238496865877D+00-2.793967723846D-08
    9.573962873526D-01 1.719375000000D+02-2.358246200614D+00-7.887828559721D-09
   -1.642925577302D-10 1.000000000000D+00 2.166000000000D+03 0.000000000000D+00
    2.000000000000D+00 0.000000000000D+00 4.656612873077D-10 6.400000000000D+01
    4.752180000000D+05 4.000000000000D+00
 1 21  7 16 14  0  0.0 6.265086121857D-04-1.159605744760D-11 0.000000000000D+00
    8.600000000000D+01 2.712500000000D+01 4.138029508396D-09 7.010179848529D-01
    1.659616827965D-06 1.105130568612D-02 8.689239621162D-06 5.153681356430D+03
    4.824000000000D+05 0.000000000000D+00 1.968135298952D+00 9.685754776001D-08
    9.847271402609D-01 2.240937500000D+02 8.733066180060D-01-8.102837515707D-09
    1.192906832215D-10 1.000000000000D+00 2.166000000000D+03 0.000000000000D+00
    2.000000000000D+00 0.000000000000D+00 5.122274160385D-09 8.600000000000D+01
    4.752180000000D+05 4.000000000000D+00
16 21  7 16 14  0  0.0-3.580404445529D-04-6.139089236967D-12 0.000000000000D+00
    2.900000000000D+01 1.403125000000D+01 4.598405827775D-09-2.452987215575D+00
    3.874301910400D-07 1.217006414663D-02 5.271285772324D-06 5.153722274780D+03
    4.824000000000D+05 8.568167686462D-08-4.648825230802D-02-1.862645149231D-07
    9.732839346454D-01 2.847812500000D+02 6.793937456937D-01-8.092479941415D-09
    4.214461263514D-11 1.000000000000D+00 2.166000000000D+03 0.000000000000D+00
    2.000000000000D+00 0.000000000000D+00-1.024454832077D-08 2.900000000000D+01
    4.752180000000D+05 4.000000000000D+00
23 21  7 16 14  0  0.0 8.382229134440D-05-5.229594535194D-12 0.000000000000D+00
    1.160000000000D+02-3.678125000000D+01 4.714482091388D-09 3.228058297928D-01
   -2.142041921616D-06 1.406403142028D-03 5.193054676056D-06 5.153656150818D+03
    4.824000000000D+05 3.911554813385D-08 2.978682131393D+00-3.352761268616D-08
    9.651171549691D-01 2.847812500000D+02 2.618132118386D+00-8.321060891300D-09
   -1.478633019572D-10 1.000000000000D+00 2.166000000000D+03 0.000000000000D+00
    2.000000000000D+00 0.000000000000D+00-8.381903171539D-09 8.840000000000D+02
    4.752180000000D+05 4.000000000000D+00
 3 21  7 16 14  0  0.0-2.224193885922D-04-1.159605744760D-11 0.000000000000D+00
    1.300000000000D+01-2.556250000000D+01 4.669480216880D-09-3.316454757138D-01
   -1.374632120132D-06 3.711772966199D-03 5.021691322327D-06 5.153555059433D+03
    4.824000000000D+05-1.862645149231D-08 3.005277348630D+00 5.401670932770D-08
    9.702544887768D-01 2.847500000000D+02 8.903662323789D-01-8.333204254263D-09
   -7.536028191537D-11 1.000000000000D+00 2.166000000000D+03 0.000000000000D+00
    2.000000000000D+00 0.000000000000D+00 1.862645149231D-09 1.300000000000D+01
    4.752180000000D+05 4.000000000000D+00
14 21  7 16 14  0  0.0 4.600686952472D-05-8.981260180008D-12 0.000000000000D+00
    6.000000000000D+00 1.868750000000D+01 4.926990943235D-09-5.585062694679D-01
    9.518116712570D-07 8.948995964602D-04 4.898756742477D-06 5.153749292374D+03
    4.824000000000D+05 3.725290298462D-09-9.310731875069D-02 3.911554813385D-08
    9.566791180967D-01 2.806250000000D+02 2.960723085726D+00-8.386777914392D-09
    1.678641350722D-11 1.000000000000D+00 2.166000000000D+03 0.000000000000D+00
    2.000000000000D+00 0.000000000000D+00-7.916241884232D-09 2.620000000000D+02
    4.758120000000D+05 4.000000000000D+00
 7 21  7 16 14  0  0.0 2.037133090198D-04 8.867573342286D-12 0.000000000000D+00
    8.900000000000D+01 4.253125000000D+01 4.783413534088D-09 1.064289053282D-01
    2.404674887657D-06 1.517147710547D-02 9.238719940186D-06 5.153747331619D+03
    4.824000000000D+05-1.303851604462D-08-1.176108573277D+00 2.849847078323D-07
    9.511782447576D-01 1.996562500000D+02-2.317383545652D+00-8.347490563631D-09
    2.921550265724D-10 1.000000000000D+00 2.166000000000D+03 0.000000000000D+00
    2.000000000000D+00 0.000000000000D+00-1.117587089539D-08 8.900000000000D+01
    4.752180000000D+05 4.000000000000D+00
 4 21  7 16 14  0  0.0-2.024597488344D-04-7.958078640513D-13 0.000000000000D+00
    2.100000000000D+02-5.843750000000D+01 4.382325398586D-09 2.363082386884D+00
   -3.013759851456D-06 1.289425417781D-03 1.012533903122D-05 5.153723537445D+03
    4.824000000000D+05 4.656612873077D-08-2.197511299463D+00-5.774199962616D-08
    9.605313719986D-01 1.854375000000D+02-2.951383568012D+00-7.981761043814D-09
   -2.614394614315D-10 1.000000000000D+00 2.166000000000D+03 0.000000000000D+00
    2.000000000000D+00 0.000000000000D+00-4.190951585770D-09 7.220000000000D+02
    4.752180000000D+05 4.000000000000D+00
31 21  7 16 14  0  0.0-1.289513893425D-04-2.160049916711D-12 0.000000000000D+00
    9.000000000000D+01 5.828125000000D+01 4.640907598144D-09-4.084976914085D-01
    3.226101398468D-06 1.005203602836D-02 9.380280971527D-06 5.153570423126D+03
    4.824000000000D+05 1.918524503708D-07-1.158850141023D+00 7.078051567078D-08
    9.554834254113D-01 1.916562500000D+02 2.701826140075D-01-8.277487647728D-09
    3.350139546759D-10 1.000000000000D+00 2.166000000000D+03 0.000000000000D+00
    2.800000000000D+00 0.000000000000D+00-1.303851604462D-08 9.000000000000D+01
    4.752180000000D+05 4.000000000000D+00
26 21  7 16 14  0  0.0 1.112609170377D-04 4.547473508865D-12 0.000000000000D+00
    3.200000000000D+01 2.468750000000D+01 5.322007397256D-09-1.534660914593D+00
    1.020729541779D-06 5.932606291026D-03 4.738569259644D-06 5.153586866379D+03
    4.824000000000D+05 1.303851604462D-08-1.822478956307D-01-1.173466444016D-07
    9.414446710408D-01 2.745625000000D+02 2.998304190147D-01-8.575000040314D-09
    8.178912113090D-11 1.000000000000D+00 2.166000000000D+03 0.000000000000D+00
    2.000000000000D+00 0.000000000000D+00 6.984919309616D-09 3.200000000000D+01
    4.752180000000D+05 4.000000000000D+00
